[{"OBJECT_NAME":"AEROCUBE 8C","OBJECT_ID":"2016-067F","EPOCH":"2026-03-09T13:42:34.002432","MEAN_MOTION":15.23097058,"ECCENTRICITY":0.0006461,"INCLINATION":98.0696,"RA_OF_ASC_NODE":288.5487,"ARG_OF_PERICENTER":53.7064,"MEAN_ANOMALY":306.4766,"EPHEMERIS_TYPE":0,"CLASSIFICATION_TYPE":"U","NORAD_CAT_ID":41853,"ELEMENT_SET_NO":999,"REV_AT_EPOCH":51089,"BSTAR":0.00041541,"MEAN_MOTION_DOT":9.726e-5,"MEAN_MOTION_DDOT":0},{"OBJECT_NAME":"STARLINK-30215","OBJECT_ID":"2023-105R","EPOCH":"2026-03-09T22:00:01.999584","MEAN_MOTION":15.21884858,"ECCENTRICITY":0.00010316,"INCLINATION":42.9992,"RA_OF_ASC_NODE":258.6075,"ARG_OF_PERICENTER":307.4613,"MEAN_ANOMALY":139.0312,"EPHEMERIS_TYPE":0,"CLASSIFICATION_TYPE":"U","NORAD_CAT_ID":57445,"ELEMENT_SET_NO":999,"REV_AT_EPOCH":578,"BSTAR":0.0053865498,"MEAN_MOTION_DOT":0.00126903,"MEAN_MOTION_DDOT":0}]
